[{"OBJECT_NAME":"WNISAT-1","OBJECT_ID":"2013-066H","EPOCH":"2026-03-09T23:22:50.142144","MEAN_MOTION":14.57873953,"ECCENTRICITY":0.01635812,"INCLINATION":97.7044,"RA_OF_ASC_NODE":225.2618,"ARG_OF_PERICENTER":183.9709,"MEAN_ANOMALY":176.0205,"EPHEMERIS_TYPE":0,"CLASSIFICATION_TYPE":"U","NORAD_CAT_ID":39423,"ELEMENT_SET_NO":999,"REV_AT_EPOCH":65227,"BSTAR":0.00040775548,"MEAN_MOTION_DOT":2.198e-5,"MEAN_MOTION_DDOT":0},{"OBJECT_NAME":"FASAT B","OBJECT_ID":"1998-043B","EPOCH":"2026-03-09T22:53:59.727264","MEAN_MOTION":14.2648102,"ECCENTRICITY":0.00035667,"INCLINATION":98.966,"RA_OF_ASC_NODE":56.4113,"ARG_OF_PERICENTER":49.9174,"MEAN_ANOMALY":310.2318,"EPHEMERIS_TYPE":0,"CLASSIFICATION_TYPE":"U","NORAD_CAT_ID":25395,"ELEMENT_SET_NO":999,"REV_AT_EPOCH":43869,"BSTAR":0.00012004598,"MEAN_MOTION_DOT":2.43e-6,"MEAN_MOTION_DDOT":0}]
